[{"OBJECT_NAME":"STARLINK-32796","OBJECT_ID":"2025-014E","EPOCH":"2026-03-09T05:51:33.518016","MEAN_MOTION":15.27587037,"ECCENTRICITY":8.861e-5,"INCLINATION":42.9965,"RA_OF_ASC_NODE":156.5235,"ARG_OF_PERICENTER":178.9526,"MEAN_ANOMALY":181.1328,"EPHEMERIS_TYPE":0,"CLASSIFICATION_TYPE":"U","NORAD_CAT_ID":62739,"ELEMENT_SET_NO":999,"REV_AT_EPOCH":6319,"BSTAR":0.0015179792,"MEAN_MOTION_DOT":0.00041755,"MEAN_MOTION_DDOT":0},{"OBJECT_NAME":"THOR AGENA B DEB","OBJECT_ID":"1965-098G","EPOCH":"2026-03-09T23:22:06.853152","MEAN_MOTION":13.57256453,"ECCENTRICITY":0.07679635,"INCLINATION":79.6109,"RA_OF_ASC_NODE":51.0692,"ARG_OF_PERICENTER":143.4347,"MEAN_ANOMALY":222.1845,"EPHEMERIS_TYPE":0,"CLASSIFICATION_TYPE":"U","NORAD_CAT_ID":1951,"ELEMENT_SET_NO":999,"REV_AT_EPOCH":79416,"BSTAR":0.00077607754,"MEAN_MOTION_DOT":4.232e-5,"MEAN_MOTION_DDOT":0}]
